LEMUR-1                 
1 40044U 14033AL  23018.78915569  .00004354  00000+0  63024-3 0  9990
2 40044  97.6564 200.8149 0057562 180.1681 179.9519 14.75464983461222
LEMUR-2-XIAOQING        
1 41871U 16062C   23019.35104872  .00105119  00000+0  15415-2 0  9995
2 41871  51.6302  12.5663 0004656  38.6647 321.4677 15.54695722343307
LEMUR-2-SOKOLSKY        
1 41872U 16062D   23019.40103699  .00097193  00000+0  14194-2 0  9993
2 41872  51.6721  23.2392 0003112  77.2831 282.8508 15.54852730343274
LEMUR-2-ANUBHAVTHAKUR   
1 41873U 16062E   23019.45907460  .00020689  00000+0  67212-3 0  9993
2 41873  51.6791  84.4164 0007159 331.9911  28.0685 15.31864053342396
LEMUR-2-WINGO           
1 41874U 16062F   23018.96497561  .00116416  00000+0  18801-2 0  9998
2 41874  51.6438  27.4191 0005647 306.1930  53.8537 15.51974354343084
LEMUR-2-JOBANPUTRA      
1 41991U 17008AV  23019.14799079  .00055989  00000+0  12953-2 0  9998
2 41991  97.2333  82.2740 0005153 170.0504 190.0846 15.42276846329295
LEMUR-2-SPIRE-MINIONS   
1 41992U 17008AW  23019.11749948  .00100348  00000+0  17857-2 0  9994
2 41992  97.2409  88.2141 0003419 157.2186 202.9218 15.49780995329622
LEMUR-2-SATCHMO         
1 41993U 17008AX  23018.62300135  .00044073  00000+0  11178-2 0  9993
2 41993  97.2311  81.8378 0005060 172.3531 187.7794 15.39547882329211
LEMUR-2-SMITA-SHARAD    
1 41994U 17008AY  23019.44000728  .00063873  00000+0  11751-2 0  9996
2 41994  97.2412  88.2599 0003789 153.0410 207.1038 15.48974655329667
LEMUR-2-RDEATON         
1 41995U 17008AZ  23018.89956211  .00045183  00000+0  11841-2 0  9996
2 41995  97.2376  82.3192 0005558 184.8963 175.2229 15.38533953329930
LEMUR-2-TACHIKOMA       
1 41996U 17008BA  23019.43522713  .00075662  00000+0  14671-2 0  9993
2 41996  97.2471  88.3788 0004309 174.9784 185.1510 15.47407776329529
LEMUR-2-NOGUECORREIG    
1 41997U 17008BB  23019.45044519  .00085401  00000+0  15150-2 0  9994
2 41997  97.2415  89.1129 0004142 172.5378 187.5936 15.49925436329689
LEMUR-2-MIA-GRACE       
1 41998U 17008BC  23019.17312033  .00040158  00000+0  10550-2 0  9992
2 41998  97.2345  82.0956 0005457 185.8113 174.3070 15.38485271329191
LEMUR-2-ANGELA          
1 42752U 17019B   23019.36650667  .00100959  00000+0  12404-2 0  9998
2 42752  51.6270 253.8575 0007106 141.4352 218.7150 15.59447111314631
LEMUR-2-ROBMOORE        
1 42754U 17019D   23019.37900817  .00075369  00000+0  10891-2 0  9990
2 42754  51.6282 257.6378 0006530 142.8632 217.2812 15.55237212314561
LEMUR-2-SHAINAJOHL      
1 42771U 17036G   23019.35596353  .00046958  00000+0  11972-2 0  9995
2 42771  97.1750  60.3126 0007696 260.7259  99.3117 15.39356632310084
LEMUR-2-XUENITERENCE    
1 42772U 17036H   23018.62784396  .00081083  00000+0  18038-2 0  9999
2 42772  97.1607  60.0914 0006701 255.1670 104.8836 15.43330559310051
LEMUR-2-LUCYBRYCE       
1 42773U 17036J   23018.66651464  .00046269  00000+0  13041-2 0  9999
2 42773  97.1793  59.2853 0007911 266.5286  93.5053 15.36253423309906
LEMUR-2-KUNGFOO         
1 42774U 17036K   23019.37170452  .00047405  00000+0  11889-2 0  9993
2 42774  97.1742  60.8560 0007171 256.2384 103.8065 15.39860582310113
LEMUR-2-LYNSEY-SYMO     
1 42779U 17036Q   23019.05255312  .00059579  00000+0  12946-2 0  9992
2 42779  97.1778  66.0210 0005942 248.6449 111.4166 15.44127710310378
LEMUR-2-LISASAURUS      
1 42780U 17036R   23019.09678274  .00059883  00000+0  14403-2 0  9992
2 42780  97.1741  61.8755 0006050 267.3590  92.6964 15.41081307310120
LEMUR-2-SAM-AMELIA      
1 42781U 17036S   23018.66580199  .00027662  00000+0  84089-3 0  9991
2 42781  97.1813  61.3116 0007583 271.6862  88.3512 15.33984874310010
LEMUR-2-MCPEAKE         
1 42782U 17036T   23019.05056824  .00050236  00000+0  12548-2 0  9992
2 42782  97.1756  63.5653 0006045 260.8346  99.2217 15.39978114310239
LEMUR-2-GREENBERG       
1 42837U 17042N   23018.83234013  .00009901  00000+0  90755-3 0  9993
2 42837  97.4034 229.4912 0012539   1.1715 358.9534 14.95031961300433
LEMUR-2-ANDIS           
1 42838U 17042P   23019.09307553  .00008908  00000+0  81620-3 0  9990
2 42838  97.4020 229.6530 0012675   0.0679   0.0542 14.95075797300478
LEMUR-2-MONSON          
1 42839U 17042Q   23019.14606689  .00007431  00000+0  68644-3 0  9990
2 42839  97.4042 229.4311 0012388   1.8054 358.3209 14.94813258300453
LEMUR-2-FURIAUS         
1 42840U 17042R   23018.83862779  .00011228  00000+0  10411-2 0  9998
2 42840  97.4063 229.4879 0012693   1.8601 358.2665 14.94544505300400
LEMUR-2-PETERG          
1 42841U 17042S   23018.82775918  .00010598  00000+0  97508-3 0  9998
2 42841  97.4090 230.7124 0012222 358.2018   1.9158 14.94868533300474
LEMUR-2-DEMBITZ         
1 42842U 17042T   23018.82834708  .00008418  00000+0  76886-3 0  9996
2 42842  97.4065 230.6128 0012235 358.4926   1.6257 14.95221070300482
LEMUR-2-ZACHARY         
1 42845U 17042W   23019.32155558  .00010453  00000+0  92846-3 0  9990
2 42845  97.3942 230.2049 0012041 357.9331   2.1840 14.96257192300619
LEMUR-2-MCCAFFERTY      
1 43123U 18004N   23019.48084707  .00101002  00000+0  16944-2 0  9998
2 43123  97.3566 105.8211 0005829 291.9549  68.1084 15.51438261279845
LEMUR-2-PETERWEBSTER    
1 43124U 18004P   23019.48172576  .00075161  00000+0  13574-2 0  9993
2 43124  97.3581 105.2362 0004939 293.8455  66.2278 15.49452622279817
LEMUR-2-BROWNCOW        
1 43125U 18004Q   23019.12238230  .00127067  00000+0  18978-2 0  9991
2 43125  97.3648 107.5594 0005180 291.0069  69.0630 15.54580574279901
LEMUR-2-DAVEWILSON      
1 43126U 18004R   23019.21754775  .00122863  00000+0  16999-2 0  9999
2 43126  97.3624 107.6132 0005218 285.3991  74.6688 15.56682722279924
LEMUR-2-MARSHALL        
1 43165U 18010C   23019.49020439  .00055469  00000+0  14479-2 0  9990
2 43165  82.9086 219.7747 0020928 281.9773  77.9127 15.38352496277576
LEMUR-2-TALLHAMN-ATC    
1 43167U 18010E   23018.61801407  .00025252  00000+0  79854-3 0  9993
2 43167  82.9133 228.0202 0017762 314.0725  45.9055 15.32497652276984
LEMUR-2-JIN-LUEN        
1 43182U 18014C   23018.67106664  .00012364  00000+0  96751-3 0  9998
2 43182  97.6321 283.4324 0017709 315.4603  44.5197 15.01059273271159
LEMUR-2-URAMCHANSOL     
1 43183U 18014D   23018.66596904  .00013292  00000+0  10295-2 0  9997
2 43183  97.6353 283.7235 0016562 298.5978  61.3579 15.01448222271169
LEMUR-2-KADI            
1 43184U 18014E   23018.64317953  .00012615  00000+0  99847-3 0  9990
2 43184  97.6304 283.4653 0012616 272.4932  87.4847 15.00680627271145
LEMUR-2-THENICKMOLO     
1 43185U 18014F   23018.51058075  .00012592  00000+0  98884-3 0  9998
2 43185  97.6283 283.6694 0006438 271.8958  88.1529 15.01026803271130
LEMUR-2-VU              
1 43558U 18046E   23019.45431924  .00471436  00000+0  17001-2 0  9996
2 43558  51.6230 162.8923 0003673 302.0008  58.0640 15.86883076253226
LEMUR-2-TOMHENDERSON    
1 43561U 18046H   23019.13757708  .00401545  00000+0  22101-2 0  9997
2 43561  51.6353 172.8416 0002084  29.5958 330.5160 15.78009466252626
LEMUR-2-ZUPANSKI        
1 43695U 18088F   23019.39516126  .00045256  00000+0  12366-2 0  9991
2 43695  85.0267 168.4437 0011772  50.1973 310.0311 15.37136047232938
LEMUR-2-CHANUSIAK       
1 43697U 18088H   23019.14264419  .00058848  00000+0  14870-2 0  9994
2 43697  85.0321 168.4693 0011671  36.6361 323.5686 15.39501626233074
LEMUR-2-ORZULAK         
1 43731U 18096N   23018.55281673  .00727478  21059-3  25038-2 0  9998
2 43731  97.3488 114.9095 0017467 313.3316  46.6500 15.89341720231695
LEMUR-2-KOBYSZCZE       
1 43732U 18096P   23019.22220427  .00579702  12875-3  21115-2 0  9997
2 43732  97.3481 116.1718 0015293 315.9860  44.0193 15.88250621231825
LEMUR-2-DULY            
1 43745U 18096AC  23019.18329822  .00296769  00000+0  19705-2 0  9999
2 43745  97.3489 114.6777 0012275 319.7176  40.3178 15.74528558231749
LEMUR-2-CHRISTINAHOLT   
1 43882U 18111G   23018.66941116  .00016171  00000+0  12411-2 0  9991
2 43882  97.6669 288.1933 0007931 287.5591  72.4767 15.01836091220035
LEMUR-2-TINYKEV         
1 43883U 18111H   23018.62320027  .00018527  00000+0  13975-2 0  9993
2 43883  97.6448 288.2350 0009776 285.0107  75.0036 15.02450590222048
LEMUR-2-REMY-COLTON     
1 43884U 18111J   23019.44350369  .00012792  00000+0  97496-3 0  9996
2 43884  97.6519 289.7107 0000881 348.7171  11.4034 15.02177528220193
LEMUR-2-GUSTAVO         
1 43885U 18111K   23018.66129322  .00016020  00000+0  12294-2 0  9993
2 43885  97.6576 288.5025 0013816 289.5863  70.3869 15.01790148222049
LEMUR-2-ZO              
1 43886U 18111L   23019.31110869  .00012942  00000+0  99533-3 0  9994
2 43886  97.6403 289.3849 0014172 311.9227  48.0789 15.01755117220152
LEMUR-2-NATALIEMURRAY   
1 43887U 18111M   23019.31815335  .00012428  00000+0  95075-3 0  9991
2 43887  97.6542 289.8151 0009647 249.8049 110.2138 15.02010418222173
LEMUR-2-SARAHBETTYBOO   
1 43888U 18111N   23018.99775045  .00016053  00000+0  12172-2 0  9992
2 43888  97.6896 290.0840 0013019 349.5889  10.5064 15.02257115222136
LEMUR-2-DAISY-HARPER    
1 43889U 18111P   23018.66017360  .00015353  00000+0  11654-2 0  9992
2 43889  97.6804 289.8779 0011388 350.0123  10.0873 15.02240389222080
LEMUR-2-JOHANLORAN      
1 44084U 19018G   23019.44612843  .00196647  00000+0  21832-2 0  9996
2 44084  97.2866  87.2363 0005069  36.1776 323.9824 15.62265787212116
LEMUR-2-BEAUDACIOUS     
1 44085U 19018H   23019.09725220  .00073420  00000+0  15990-2 0  9993
2 44085  97.2843  83.3622 0008944  59.6148 300.5983 15.43976618211831
LEMUR-2-ELHAM           
1 44086U 19018J   23019.12351260  .00097009  00000+0  17293-2 0  9994
2 44086  97.2935  85.7942 0007514  43.7819 316.4027 15.49721079211971
LEMUR-2-VICTOR-ANDREW   
1 44087U 19018K   23019.15599801  .00222960  00000+0  24316-2 0  9993
2 44087  97.2918  87.7421 0004672  38.3957 321.7633 15.62644083212115
LEMUR-2-LILLYJO         
1 44396U 19038L   23019.36604605  .00028533  00000+0  11110-2 0  9998
2 44396  97.6402 356.8258 0020966  97.5497 262.8123 15.25747231195913
